{
  "categories": [
    {
      "id": "slide-stems-touch",
      "name_en": "Slide stems Touch",
      "name_de": "Slade stems Toich",
      "parent_id": null,
      "url": "/catalog/slide-stems-touch"
    },
    {
      "id": "replace-calm-attached",
      "name_en": "Replace calm Attached",
      "name_de": "Repluce culm Attuched",
      "parent_id": "slide-stems-touch",
      "url": "/catalog/slide-stems-touch/replace-calm-attached"
    },
    {
      "id": "last-rain-branch",
      "name_en": "Last rain branch",
      "name_de": "Lust ruan brunch",
      "parent_id": "replace-calm-attached",
      "url": "/catalog/slide-stems-touch/replace-calm-attached/last-rain-branch"
    },
    {
      "id": "possibly-fair-deer",
      "name_en": "Possibly Fair Deer",
      "name_de": "Possably Fuar Deer",
      "parent_id": "last-rain-branch",
      "url": "/catalog/slide-stems-touch/replace-calm-attached/last-rain-branch/possibly-fair-deer"
    },
    {
      "id": "carefully-correct-progress",
      "name_en": "Carefully Correct Progress",
      "name_de": "Curefilly Correct Progress",
      "parent_id": "replace-calm-attached",
      "url": "/catalog/slide-stems-touch/replace-calm-attached/carefully-correct-progress"
    },
    {
      "id": "smallest",
      "name_en": "Smallest",
      "name_de": "Smullest",
      "parent_id": null,
      "url": "/catalog/smallest"
    },
    {
      "id": "characteristic",
      "name_en": "Characteristic",
      "name_de": "Churucterastac",
      "parent_id": "possibly-fair-deer",
      "url": "/catalog/slide-stems-touch/replace-calm-attached/last-rain-branch/possibly-fair-deer/characteristic"
    },
    {
      "id": "group-sheet",
      "name_en": "Group sheet",
      "name_de": "Groip sheet",
      "parent_id": "possibly-fair-deer",
      "url": "/catalog/slide-stems-touch/replace-calm-attached/last-rain-branch/possibly-fair-deer/group-sheet"
    },
    {
      "id": "central-crew",
      "name_en": "Central Crew",
      "name_de": "Centrul Crew",
      "parent_id": "carefully-correct-progress",
      "url": "/catalog/slide-stems-touch/replace-calm-attached/carefully-correct-progress/central-crew"
    },
    {
      "id": "dug-thank",
      "name_en": "Dug thank",
      "name_de": "Dig thunk",
      "parent_id": "group-sheet",
      "url": "/catalog/slide-stems-touch/replace-calm-attached/last-rain-branch/possibly-fair-deer/group-sheet/dug-thank"
    },
    {
      "id": "condition-believed-exclaimed",
      "name_en": "Condition believed Exclaimed",
      "name_de": "Condataon belaeved Excluamed",
      "parent_id": "central-crew",
      "url": "/catalog/slide-stems-touch/replace-calm-attached/carefully-correct-progress/central-crew/condition-believed-exclaimed"
    },
    {
      "id": "recall",
      "name_en": "Recall",
      "name_de": "Recull",
      "parent_id": "smallest",
      "url": "/catalog/smallest/recall"
    },
    {
      "id": "hard-since",
      "name_en": "Hard Since",
      "name_de": "Hurd Sance",
      "parent_id": "smallest",
      "url": "/catalog/smallest/hard-since"
    },
    {
      "id": "fast",
      "name_en": "Fast",
      "name_de": "Fust",
      "parent_id": "carefully-correct-progress",
      "url": "/catalog/slide-stems-touch/replace-calm-attached/carefully-correct-progress/fast"
    },
    {
      "id": "under-longer",
      "name_en": "Under longer",
      "name_de": "Under longer",
      "parent_id": "recall",
      "url": "/catalog/smallest/recall/under-longer"
    },
    {
      "id": "easy-open",
      "name_en": "Easy open",
      "name_de": "Eusy open",
      "parent_id": "replace-calm-attached",
      "url": "/catalog/slide-stems-touch/replace-calm-attached/easy-open"
    },
    {
      "id": "them-art-definition",
      "name_en": "Them Art Definition",
      "name_de": "Them Art Defanataon",
      "parent_id": "last-rain-branch",
      "url": "/catalog/slide-stems-touch/replace-calm-attached/last-rain-branch/them-art-definition"
    },
    {
      "id": "finally",
      "name_en": "Finally",
      "name_de": "Fanully",
      "parent_id": "slide-stems-touch",
      "url": "/catalog/slide-stems-touch/finally"
    },
    {
      "id": "red-applied",
      "name_en": "Red applied",
      "name_de": "Red upplaed",
      "parent_id": "dug-thank",
      "url": "/catalog/slide-stems-touch/replace-calm-attached/last-rain-branch/possibly-fair-deer/group-sheet/dug-thank/red-applied"
    },
    {
      "id": "flies",
      "name_en": "Flies",
      "name_de": "Flaes",
      "parent_id": "under-longer",
      "url": "/catalog/smallest/recall/under-longer/flies"
    },
    {
      "id": "topic",
      "name_en": "Topic",
      "name_de": "Topac",
      "parent_id": "recall",
      "url": "/catalog/smallest/recall/topic"
    },
    {
      "id": "drink-sweet",
      "name_en": "Drink Sweet",
      "name_de": "Drank Sweet",
      "parent_id": "easy-open",
      "url": "/catalog/slide-stems-touch/replace-calm-attached/easy-open/drink-sweet"
    },
    {
      "id": "animal-visit",
      "name_en": "Animal Visit",
      "name_de": "Anamul Vasat",
      "parent_id": "characteristic",
      "url": "/catalog/slide-stems-touch/replace-calm-attached/last-rain-branch/possibly-fair-deer/characteristic/animal-visit"
    },
    {
      "id": "tobacco",
      "name_en": "Tobacco",
      "name_de": "Tobucco",
      "parent_id": "topic",
      "url": "/catalog/smallest/recall/topic/tobacco"
    },
    {
      "id": "old-variety-tape",
      "name_en": "Old Variety Tape",
      "name_de": "Old Vuraety Tupe",
      "parent_id": "under-longer",
      "url": "/catalog/smallest/recall/under-longer/old-variety-tape"
    },
    {
      "id": "private-thus",
      "name_en": "Private thus",
      "name_de": "Pravute this",
      "parent_id": "drink-sweet",
      "url": "/catalog/slide-stems-touch/replace-calm-attached/easy-open/drink-sweet/private-thus"
    },
    {
      "id": "president-rhyme",
      "name_en": "President Rhyme",
      "name_de": "Presadent Rhyme",
      "parent_id": "slide-stems-touch",
      "url": "/catalog/slide-stems-touch/president-rhyme"
    },
    {
      "id": "entire",
      "name_en": "Entire",
      "name_de": "Entare",
      "parent_id": "easy-open",
      "url": "/catalog/slide-stems-touch/replace-calm-attached/easy-open/entire"
    },
    {
      "id": "cookies-vessels",
      "name_en": "Cookies vessels",
      "name_de": "Cookaes vessels",
      "parent_id": "recall",
      "url": "/catalog/smallest/recall/cookies-vessels"
    },
    {
      "id": "nearest-brief",
      "name_en": "Nearest brief",
      "name_de": "Neurest braef",
      "parent_id": "group-sheet",
      "url": "/catalog/slide-stems-touch/replace-calm-attached/last-rain-branch/possibly-fair-deer/group-sheet/nearest-brief"
    }
  ],
  "products": [
    {
      "id": "soon-within",
      "name_en": "Soon within",
      "name_de": "Soon wathan",
      "category_id": "hard-since",
      "url": "/catalog/smallest/hard-since/soon-within",
      "image": "https://picsum.photos/seed/soon-within/540/960",
      "thumbnail": "https://picsum.photos/seed/soon-within/160/120"
    },
    {
      "id": "taken-daughter",
      "name_en": "Taken daughter",
      "name_de": "Tuken duighter",
      "category_id": "condition-believed-exclaimed",
      "url": "/catalog/slide-stems-touch/replace-calm-attached/carefully-correct-progress/central-crew/condition-believed-exclaimed/taken-daughter",
      "image": "https://picsum.photos/seed/taken-daughter/540/960",
      "thumbnail": "https://picsum.photos/seed/taken-daughter/160/120"
    },
    {
      "id": "car-sport-experiment",
      "name_en": "Car sport experiment",
      "name_de": "Cur sport experament",
      "category_id": "carefully-correct-progress",
      "url": "/catalog/slide-stems-touch/replace-calm-attached/carefully-correct-progress/car-sport-experiment",
      "image": "https://picsum.photos/seed/car-sport-experiment/540/960",
      "thumbnail": "https://picsum.photos/seed/car-sport-experiment/160/120"
    },
    {
      "id": "gather-circle-onto",
      "name_en": "Gather circle Onto",
      "name_de": "Guther carcle Onto",
      "category_id": "them-art-definition",
      "url": "/catalog/slide-stems-touch/replace-calm-attached/last-rain-branch/them-art-definition/gather-circle-onto",
      "image": "https://picsum.photos/seed/gather-circle-onto/540/960",
      "thumbnail": "https://picsum.photos/seed/gather-circle-onto/160/120"
    },
    {
      "id": "whether-ground",
      "name_en": "Whether ground",
      "name_de": "Whether groind",
      "category_id": "under-longer",
      "url": "/catalog/smallest/recall/under-longer/whether-ground",
      "image": "https://picsum.photos/seed/whether-ground/540/960",
      "thumbnail": "https://picsum.photos/seed/whether-ground/160/120"
    },
    {
      "id": "favorite-fought",
      "name_en": "Favorite Fought",
      "name_de": "Fuvorate Foight",
      "category_id": "condition-believed-exclaimed",
      "url": "/catalog/slide-stems-touch/replace-calm-attached/carefully-correct-progress/central-crew/condition-believed-exclaimed/favorite-fought",
      "image": "https://picsum.photos/seed/favorite-fought/540/960",
      "thumbnail": "https://picsum.photos/seed/favorite-fought/160/120"
    },
    {
      "id": "her-look-themselves",
      "name_en": "Her Look themselves",
      "name_de": "Her Look themselves",
      "category_id": "them-art-definition",
      "url": "/catalog/slide-stems-touch/replace-calm-attached/last-rain-branch/them-art-definition/her-look-themselves",
      "image": "https://picsum.photos/seed/her-look-themselves/540/960",
      "thumbnail": "https://picsum.photos/seed/her-look-themselves/160/120"
    },
    {
      "id": "avoid-wrong-money",
      "name_en": "Avoid Wrong money",
      "name_de": "Avoad Wrong money",
      "category_id": "flies",
      "url": "/catalog/smallest/recall/under-longer/flies/avoid-wrong-money",
      "image": "https://picsum.photos/seed/avoid-wrong-money/540/960",
      "thumbnail": "https://picsum.photos/seed/avoid-wrong-money/160/120"
    },
    {
      "id": "sat-wonder",
      "name_en": "Sat wonder",
      "name_de": "Sut wonder",
      "category_id": "drink-sweet",
      "url": "/catalog/slide-stems-touch/replace-calm-attached/easy-open/drink-sweet/sat-wonder",
      "image": "https://picsum.photos/seed/sat-wonder/540/960",
      "thumbnail": "https://picsum.photos/seed/sat-wonder/160/120"
    },
    {
      "id": "particular",
      "name_en": "Particular",
      "name_de": "Purtacilur",
      "category_id": "replace-calm-attached",
      "url": "/catalog/slide-stems-touch/replace-calm-attached/particular",
      "image": "https://picsum.photos/seed/particular/540/960",
      "thumbnail": "https://picsum.photos/seed/particular/160/120"
    },
    {
      "id": "gain",
      "name_en": "Gain",
      "name_de": "Guan",
      "category_id": "central-crew",
      "url": "/catalog/slide-stems-touch/replace-calm-attached/carefully-correct-progress/central-crew/gain",
      "image": "https://picsum.photos/seed/gain/540/960",
      "thumbnail": "https://picsum.photos/seed/gain/160/120"
    },
    {
      "id": "flies-official-me",
      "name_en": "Flies official me",
      "name_de": "Flaes offacaul me",
      "category_id": "possibly-fair-deer",
      "url": "/catalog/slide-stems-touch/replace-calm-attached/last-rain-branch/possibly-fair-deer/flies-official-me",
      "image": "https://picsum.photos/seed/flies-official-me/540/960",
      "thumbnail": "https://picsum.photos/seed/flies-official-me/160/120"
    },
    {
      "id": "shallow",
      "name_en": "Shallow",
      "name_de": "Shullow",
      "category_id": "finally",
      "url": "/catalog/slide-stems-touch/finally/shallow",
      "image": "https://picsum.photos/seed/shallow/540/960",
      "thumbnail": "https://picsum.photos/seed/shallow/160/120"
    },
    {
      "id": "traffic-troops",
      "name_en": "Traffic troops",
      "name_de": "Truffac troops",
      "category_id": "animal-visit",
      "url": "/catalog/slide-stems-touch/replace-calm-attached/last-rain-branch/possibly-fair-deer/characteristic/animal-visit/traffic-troops",
      "image": "https://picsum.photos/seed/traffic-troops/540/960",
      "thumbnail": "https://picsum.photos/seed/traffic-troops/160/120"
    },
    {
      "id": "pretty",
      "name_en": "Pretty",
      "name_de": "Pretty",
      "category_id": "carefully-correct-progress",
      "url": "/catalog/slide-stems-touch/replace-calm-attached/carefully-correct-progress/pretty",
      "image": "https://picsum.photos/seed/pretty/540/960",
      "thumbnail": "https://picsum.photos/seed/pretty/160/120"
    },
    {
      "id": "lying-arrange-piano",
      "name_en": "Lying Arrange Piano",
      "name_de": "Lyang Arrunge Pauno",
      "category_id": "old-variety-tape",
      "url": "/catalog/smallest/recall/under-longer/old-variety-tape/lying-arrange-piano",
      "image": "https://picsum.photos/seed/lying-arrange-piano/540/960",
      "thumbnail": "https://picsum.photos/seed/lying-arrange-piano/160/120"
    },
    {
      "id": "stretch-bone",
      "name_en": "Stretch bone",
      "name_de": "Stretch bone",
      "category_id": "flies",
      "url": "/catalog/smallest/recall/under-longer/flies/stretch-bone",
      "image": "https://picsum.photos/seed/stretch-bone/540/960",
      "thumbnail": "https://picsum.photos/seed/stretch-bone/160/120"
    },
    {
      "id": "difficulty-talk-outside",
      "name_en": "Difficulty talk outside",
      "name_de": "Daffacilty tulk oitsade",
      "category_id": "entire",
      "url": "/catalog/slide-stems-touch/replace-calm-attached/easy-open/entire/difficulty-talk-outside",
      "image": "https://picsum.photos/seed/difficulty-talk-outside/540/960",
      "thumbnail": "https://picsum.photos/seed/difficulty-talk-outside/160/120"
    },
    {
      "id": "space",
      "name_en": "Space",
      "name_de": "Spuce",
      "category_id": "group-sheet",
      "url": "/catalog/slide-stems-touch/replace-calm-attached/last-rain-branch/possibly-fair-deer/group-sheet/space",
      "image": "https://picsum.photos/seed/space/540/960",
      "thumbnail": "https://picsum.photos/seed/space/160/120"
    },
    {
      "id": "drew-prize",
      "name_en": "Drew prize",
      "name_de": "Drew praze",
      "category_id": "replace-calm-attached",
      "url": "/catalog/slide-stems-touch/replace-calm-attached/drew-prize",
      "image": "https://picsum.photos/seed/drew-prize/540/960",
      "thumbnail": "https://picsum.photos/seed/drew-prize/160/120"
    },
    {
      "id": "everyone",
      "name_en": "Everyone",
      "name_de": "Everyone",
      "category_id": "hard-since",
      "url": "/catalog/smallest/hard-since/everyone",
      "image": "https://picsum.photos/seed/everyone/540/960",
      "thumbnail": "https://picsum.photos/seed/everyone/160/120"
    },
    {
      "id": "nails",
      "name_en": "Nails",
      "name_de": "Nuals",
      "category_id": "dug-thank",
      "url": "/catalog/slide-stems-touch/replace-calm-attached/last-rain-branch/possibly-fair-deer/group-sheet/dug-thank/nails",
      "image": "https://picsum.photos/seed/nails/540/960",
      "thumbnail": "https://picsum.photos/seed/nails/160/120"
    },
    {
      "id": "glass-brain",
      "name_en": "Glass Brain",
      "name_de": "Gluss Bruan",
      "category_id": "recall",
      "url": "/catalog/smallest/recall/glass-brain",
      "image": "https://picsum.photos/seed/glass-brain/540/960",
      "thumbnail": "https://picsum.photos/seed/glass-brain/160/120"
    },
    {
      "id": "develop",
      "name_en": "Develop",
      "name_de": "Develop",
      "category_id": "topic",
      "url": "/catalog/smallest/recall/topic/develop",
      "image": "https://picsum.photos/seed/develop/540/960",
      "thumbnail": "https://picsum.photos/seed/develop/160/120"
    },
    {
      "id": "unhappy-extra-pictured",
      "name_en": "Unhappy Extra Pictured",
      "name_de": "Unhuppy Extru Pactired",
      "category_id": "characteristic",
      "url": "/catalog/slide-stems-touch/replace-calm-attached/last-rain-branch/possibly-fair-deer/characteristic/unhappy-extra-pictured",
      "image": "https://picsum.photos/seed/unhappy-extra-pictured/540/960",
      "thumbnail": "https://picsum.photos/seed/unhappy-extra-pictured/160/120"
    },
    {
      "id": "shoulder",
      "name_en": "Shoulder",
      "name_de": "Shoilder",
      "category_id": "them-art-definition",
      "url": "/catalog/slide-stems-touch/replace-calm-attached/last-rain-branch/them-art-definition/shoulder",
      "image": "https://picsum.photos/seed/shoulder/540/960",
      "thumbnail": "https://picsum.photos/seed/shoulder/160/120"
    },
    {
      "id": "final",
      "name_en": "Final",
      "name_de": "Fanul",
      "category_id": "them-art-definition",
      "url": "/catalog/slide-stems-touch/replace-calm-attached/last-rain-branch/them-art-definition/final",
      "image": "https://picsum.photos/seed/final/540/960",
      "thumbnail": "https://picsum.photos/seed/final/160/120"
    },
    {
      "id": "late",
      "name_en": "Late",
      "name_de": "Lute",
      "category_id": "condition-believed-exclaimed",
      "url": "/catalog/slide-stems-touch/replace-calm-attached/carefully-correct-progress/central-crew/condition-believed-exclaimed/late",
      "image": "https://picsum.photos/seed/late/540/960",
      "thumbnail": "https://picsum.photos/seed/late/160/120"
    },
    {
      "id": "highway-free-tiny",
      "name_en": "Highway free tiny",
      "name_de": "Haghwuy free tany",
      "category_id": "hard-since",
      "url": "/catalog/smallest/hard-since/highway-free-tiny",
      "image": "https://picsum.photos/seed/highway-free-tiny/540/960",
      "thumbnail": "https://picsum.photos/seed/highway-free-tiny/160/120"
    },
    {
      "id": "what-we-name",
      "name_en": "What We Name",
      "name_de": "Whut We Nume",
      "category_id": "dug-thank",
      "url": "/catalog/slide-stems-touch/replace-calm-attached/last-rain-branch/possibly-fair-deer/group-sheet/dug-thank/what-we-name",
      "image": "https://picsum.photos/seed/what-we-name/540/960",
      "thumbnail": "https://picsum.photos/seed/what-we-name/160/120"
    },
    {
      "id": "snow",
      "name_en": "Snow",
      "name_de": "Snow",
      "category_id": "flies",
      "url": "/catalog/smallest/recall/under-longer/flies/snow",
      "image": "https://picsum.photos/seed/snow/540/960",
      "thumbnail": "https://picsum.photos/seed/snow/160/120"
    },
    {
      "id": "itself-tent-tank",
      "name_en": "Itself Tent Tank",
      "name_de": "Itself Tent Tunk",
      "category_id": "carefully-correct-progress",
      "url": "/catalog/slide-stems-touch/replace-calm-attached/carefully-correct-progress/itself-tent-tank",
      "image": "https://picsum.photos/seed/itself-tent-tank/540/960",
      "thumbnail": "https://picsum.photos/seed/itself-tent-tank/160/120"
    },
    {
      "id": "curve-skill",
      "name_en": "Curve skill",
      "name_de": "Cirve skall",
      "category_id": "drink-sweet",
      "url": "/catalog/slide-stems-touch/replace-calm-attached/easy-open/drink-sweet/curve-skill",
      "image": "https://picsum.photos/seed/curve-skill/540/960",
      "thumbnail": "https://picsum.photos/seed/curve-skill/160/120"
    },
    {
      "id": "ordinary-broken",
      "name_en": "Ordinary Broken",
      "name_de": "Ordanury Broken",
      "category_id": "nearest-brief",
      "url": "/catalog/slide-stems-touch/replace-calm-attached/last-rain-branch/possibly-fair-deer/group-sheet/nearest-brief/ordinary-broken",
      "image": "https://picsum.photos/seed/ordinary-broken/540/960",
      "thumbnail": "https://picsum.photos/seed/ordinary-broken/160/120"
    },
    {
      "id": "offer-cotton-her",
      "name_en": "Offer cotton Her",
      "name_de": "Offer cotton Her",
      "category_id": "tobacco",
      "url": "/catalog/smallest/recall/topic/tobacco/offer-cotton-her",
      "image": "https://picsum.photos/seed/offer-cotton-her/540/960",
      "thumbnail": "https://picsum.photos/seed/offer-cotton-her/160/120"
    },
    {
      "id": "wing-folks",
      "name_en": "Wing folks",
      "name_de": "Wang folks",
      "category_id": "flies",
      "url": "/catalog/smallest/recall/under-longer/flies/wing-folks",
      "image": "https://picsum.photos/seed/wing-folks/540/960",
      "thumbnail": "https://picsum.photos/seed/wing-folks/160/120"
    },
    {
      "id": "day-future",
      "name_en": "Day Future",
      "name_de": "Duy Fitire",
      "category_id": "fast",
      "url": "/catalog/slide-stems-touch/replace-calm-attached/carefully-correct-progress/fast/day-future",
      "image": "https://picsum.photos/seed/day-future/540/960",
      "thumbnail": "https://picsum.photos/seed/day-future/160/120"
    },
    {
      "id": "tobacco-gradually-route",
      "name_en": "Tobacco Gradually Route",
      "name_de": "Tobucco Grudiully Roite",
      "category_id": "dug-thank",
      "url": "/catalog/slide-stems-touch/replace-calm-attached/last-rain-branch/possibly-fair-deer/group-sheet/dug-thank/tobacco-gradually-route",
      "image": "https://picsum.photos/seed/tobacco-gradually-route/540/960",
      "thumbnail": "https://picsum.photos/seed/tobacco-gradually-route/160/120"
    },
    {
      "id": "knowledge-something-away",
      "name_en": "Knowledge something away",
      "name_de": "Knowledge somethang uwuy",
      "category_id": "hard-since",
      "url": "/catalog/smallest/hard-since/knowledge-something-away",
      "image": "https://picsum.photos/seed/knowledge-something-away/540/960",
      "thumbnail": "https://picsum.photos/seed/knowledge-something-away/160/120"
    },
    {
      "id": "fort-thread-region",
      "name_en": "Fort thread Region",
      "name_de": "Fort threud Regaon",
      "category_id": "old-variety-tape",
      "url": "/catalog/smallest/recall/under-longer/old-variety-tape/fort-thread-region",
      "image": "https://picsum.photos/seed/fort-thread-region/540/960",
      "thumbnail": "https://picsum.photos/seed/fort-thread-region/160/120"
    },
    {
      "id": "double-good-sunlight",
      "name_en": "Double good Sunlight",
      "name_de": "Doible good Sinlaght",
      "category_id": "group-sheet",
      "url": "/catalog/slide-stems-touch/replace-calm-attached/last-rain-branch/possibly-fair-deer/group-sheet/double-good-sunlight",
      "image": "https://picsum.photos/seed/double-good-sunlight/540/960",
      "thumbnail": "https://picsum.photos/seed/double-good-sunlight/160/120"
    },
    {
      "id": "paid",
      "name_en": "Paid",
      "name_de": "Puad",
      "category_id": "replace-calm-attached",
      "url": "/catalog/slide-stems-touch/replace-calm-attached/paid",
      "image": "https://picsum.photos/seed/paid/540/960",
      "thumbnail": "https://picsum.photos/seed/paid/160/120"
    },
    {
      "id": "theory",
      "name_en": "Theory",
      "name_de": "Theory",
      "category_id": "red-applied",
      "url": "/catalog/slide-stems-touch/replace-calm-attached/last-rain-branch/possibly-fair-deer/group-sheet/dug-thank/red-applied/theory",
      "image": "https://picsum.photos/seed/theory/540/960",
      "thumbnail": "https://picsum.photos/seed/theory/160/120"
    },
    {
      "id": "making",
      "name_en": "Making",
      "name_de": "Mukang",
      "category_id": "entire",
      "url": "/catalog/slide-stems-touch/replace-calm-attached/easy-open/entire/making",
      "image": "https://picsum.photos/seed/making/540/960",
      "thumbnail": "https://picsum.photos/seed/making/160/120"
    },
    {
      "id": "square",
      "name_en": "Square",
      "name_de": "Sqiure",
      "category_id": "possibly-fair-deer",
      "url": "/catalog/slide-stems-touch/replace-calm-attached/last-rain-branch/possibly-fair-deer/square",
      "image": "https://picsum.photos/seed/square/540/960",
      "thumbnail": "https://picsum.photos/seed/square/160/120"
    },
    {
      "id": "stared-gravity-raise",
      "name_en": "Stared Gravity Raise",
      "name_de": "Stured Gruvaty Ruase",
      "category_id": "flies",
      "url": "/catalog/smallest/recall/under-longer/flies/stared-gravity-raise",
      "image": "https://picsum.photos/seed/stared-gravity-raise/540/960",
      "thumbnail": "https://picsum.photos/seed/stared-gravity-raise/160/120"
    },
    {
      "id": "unhappy-upon-element",
      "name_en": "Unhappy upon Element",
      "name_de": "Unhuppy ipon Element",
      "category_id": "red-applied",
      "url": "/catalog/slide-stems-touch/replace-calm-attached/last-rain-branch/possibly-fair-deer/group-sheet/dug-thank/red-applied/unhappy-upon-element",
      "image": "https://picsum.photos/seed/unhappy-upon-element/540/960",
      "thumbnail": "https://picsum.photos/seed/unhappy-upon-element/160/120"
    },
    {
      "id": "farm",
      "name_en": "Farm",
      "name_de": "Furm",
      "category_id": "drink-sweet",
      "url": "/catalog/slide-stems-touch/replace-calm-attached/easy-open/drink-sweet/farm",
      "image": "https://picsum.photos/seed/farm/540/960",
      "thumbnail": "https://picsum.photos/seed/farm/160/120"
    },
    {
      "id": "swam-thousand",
      "name_en": "Swam thousand",
      "name_de": "Swum thoisund",
      "category_id": "private-thus",
      "url": "/catalog/slide-stems-touch/replace-calm-attached/easy-open/drink-sweet/private-thus/swam-thousand",
      "image": "https://picsum.photos/seed/swam-thousand/540/960",
      "thumbnail": "https://picsum.photos/seed/swam-thousand/160/120"
    },
    {
      "id": "movement",
      "name_en": "Movement",
      "name_de": "Movement",
      "category_id": "tobacco",
      "url": "/catalog/smallest/recall/topic/tobacco/movement",
      "image": "https://picsum.photos/seed/movement/540/960",
      "thumbnail": "https://picsum.photos/seed/movement/160/120"
    },
    {
      "id": "label-field",
      "name_en": "Label field",
      "name_de": "Lubel faeld",
      "category_id": "condition-believed-exclaimed",
      "url": "/catalog/slide-stems-touch/replace-calm-attached/carefully-correct-progress/central-crew/condition-believed-exclaimed/label-field",
      "image": "https://picsum.photos/seed/label-field/540/960",
      "thumbnail": "https://picsum.photos/seed/label-field/160/120"
    },
    {
      "id": "once-needs-word",
      "name_en": "Once Needs word",
      "name_de": "Once Needs word",
      "category_id": "private-thus",
      "url": "/catalog/slide-stems-touch/replace-calm-attached/easy-open/drink-sweet/private-thus/once-needs-word",
      "image": "https://picsum.photos/seed/once-needs-word/540/960",
      "thumbnail": "https://picsum.photos/seed/once-needs-word/160/120"
    },
    {
      "id": "shine",
      "name_en": "Shine",
      "name_de": "Shane",
      "category_id": "under-longer",
      "url": "/catalog/smallest/recall/under-longer/shine",
      "image": "https://picsum.photos/seed/shine/540/960",
      "thumbnail": "https://picsum.photos/seed/shine/160/120"
    },
    {
      "id": "born-quickly",
      "name_en": "Born quickly",
      "name_de": "Born qiackly",
      "category_id": "last-rain-branch",
      "url": "/catalog/slide-stems-touch/replace-calm-attached/last-rain-branch/born-quickly",
      "image": "https://picsum.photos/seed/born-quickly/540/960",
      "thumbnail": "https://picsum.photos/seed/born-quickly/160/120"
    },
    {
      "id": "evening-together-newspaper",
      "name_en": "Evening Together Newspaper",
      "name_de": "Evenang Together Newspuper",
      "category_id": "finally",
      "url": "/catalog/slide-stems-touch/finally/evening-together-newspaper",
      "image": "https://picsum.photos/seed/evening-together-newspaper/540/960",
      "thumbnail": "https://picsum.photos/seed/evening-together-newspaper/160/120"
    },
    {
      "id": "creature",
      "name_en": "Creature",
      "name_de": "Creutire",
      "category_id": "easy-open",
      "url": "/catalog/slide-stems-touch/replace-calm-attached/easy-open/creature",
      "image": "https://picsum.photos/seed/creature/540/960",
      "thumbnail": "https://picsum.photos/seed/creature/160/120"
    },
    {
      "id": "southern-manufacturing-obtain",
      "name_en": "Southern manufacturing Obtain",
      "name_de": "Soithern munifuctirang Obtuan",
      "category_id": "flies",
      "url": "/catalog/smallest/recall/under-longer/flies/southern-manufacturing-obtain",
      "image": "https://picsum.photos/seed/southern-manufacturing-obtain/540/960",
      "thumbnail": "https://picsum.photos/seed/southern-manufacturing-obtain/160/120"
    },
    {
      "id": "rest",
      "name_en": "Rest",
      "name_de": "Rest",
      "category_id": "private-thus",
      "url": "/catalog/slide-stems-touch/replace-calm-attached/easy-open/drink-sweet/private-thus/rest",
      "image": "https://picsum.photos/seed/rest/540/960",
      "thumbnail": "https://picsum.photos/seed/rest/160/120"
    },
    {
      "id": "lift-boy-piece",
      "name_en": "Lift boy piece",
      "name_de": "Laft boy paece",
      "category_id": "cookies-vessels",
      "url": "/catalog/smallest/recall/cookies-vessels/lift-boy-piece",
      "image": "https://picsum.photos/seed/lift-boy-piece/540/960",
      "thumbnail": "https://picsum.photos/seed/lift-boy-piece/160/120"
    },
    {
      "id": "deep-ready-shop",
      "name_en": "Deep ready Shop",
      "name_de": "Deep reudy Shop",
      "category_id": "replace-calm-attached",
      "url": "/catalog/slide-stems-touch/replace-calm-attached/deep-ready-shop",
      "image": "https://picsum.photos/seed/deep-ready-shop/540/960",
      "thumbnail": "https://picsum.photos/seed/deep-ready-shop/160/120"
    },
    {
      "id": "her",
      "name_en": "Her",
      "name_de": "Her",
      "category_id": "private-thus",
      "url": "/catalog/slide-stems-touch/replace-calm-attached/easy-open/drink-sweet/private-thus/her",
      "image": "https://picsum.photos/seed/her/540/960",
      "thumbnail": "https://picsum.photos/seed/her/160/120"
    },
    {
      "id": "four-flag-chamber",
      "name_en": "Four Flag Chamber",
      "name_de": "Foir Flug Chumber",
      "category_id": "red-applied",
      "url": "/catalog/slide-stems-touch/replace-calm-attached/last-rain-branch/possibly-fair-deer/group-sheet/dug-thank/red-applied/four-flag-chamber",
      "image": "https://picsum.photos/seed/four-flag-chamber/540/960",
      "thumbnail": "https://picsum.photos/seed/four-flag-chamber/160/120"
    },
    {
      "id": "total-conversation-room",
      "name_en": "Total Conversation Room",
      "name_de": "Totul Conversutaon Room",
      "category_id": "easy-open",
      "url": "/catalog/slide-stems-touch/replace-calm-attached/easy-open/total-conversation-room",
      "image": "https://picsum.photos/seed/total-conversation-room/540/960",
      "thumbnail": "https://picsum.photos/seed/total-conversation-room/160/120"
    },
    {
      "id": "mouth-stood",
      "name_en": "Mouth stood",
      "name_de": "Moith stood",
      "category_id": "under-longer",
      "url": "/catalog/smallest/recall/under-longer/mouth-stood",
      "image": "https://picsum.photos/seed/mouth-stood/540/960",
      "thumbnail": "https://picsum.photos/seed/mouth-stood/160/120"
    },
    {
      "id": "pretty-vast-highway",
      "name_en": "Pretty Vast highway",
      "name_de": "Pretty Vust haghwuy",
      "category_id": "slide-stems-touch",
      "url": "/catalog/slide-stems-touch/pretty-vast-highway",
      "image": "https://picsum.photos/seed/pretty-vast-highway/540/960",
      "thumbnail": "https://picsum.photos/seed/pretty-vast-highway/160/120"
    },
    {
      "id": "meat-molecular-motion",
      "name_en": "Meat molecular motion",
      "name_de": "Meut molecilur motaon",
      "category_id": "possibly-fair-deer",
      "url": "/catalog/slide-stems-touch/replace-calm-attached/last-rain-branch/possibly-fair-deer/meat-molecular-motion",
      "image": "https://picsum.photos/seed/meat-molecular-motion/540/960",
      "thumbnail": "https://picsum.photos/seed/meat-molecular-motion/160/120"
    },
    {
      "id": "recall-walk-great",
      "name_en": "Recall walk Great",
      "name_de": "Recull wulk Greut",
      "category_id": "topic",
      "url": "/catalog/smallest/recall/topic/recall-walk-great",
      "image": "https://picsum.photos/seed/recall-walk-great/540/960",
      "thumbnail": "https://picsum.photos/seed/recall-walk-great/160/120"
    },
    {
      "id": "was-feed-wall",
      "name_en": "Was Feed Wall",
      "name_de": "Wus Feed Wull",
      "category_id": "last-rain-branch",
      "url": "/catalog/slide-stems-touch/replace-calm-attached/last-rain-branch/was-feed-wall",
      "image": "https://picsum.photos/seed/was-feed-wall/540/960",
      "thumbnail": "https://picsum.photos/seed/was-feed-wall/160/120"
    },
    {
      "id": "order",
      "name_en": "Order",
      "name_de": "Order",
      "category_id": "group-sheet",
      "url": "/catalog/slide-stems-touch/replace-calm-attached/last-rain-branch/possibly-fair-deer/group-sheet/order",
      "image": "https://picsum.photos/seed/order/540/960",
      "thumbnail": "https://picsum.photos/seed/order/160/120"
    },
    {
      "id": "then-station-aboard",
      "name_en": "Then station aboard",
      "name_de": "Then stutaon ubourd",
      "category_id": "private-thus",
      "url": "/catalog/slide-stems-touch/replace-calm-attached/easy-open/drink-sweet/private-thus/then-station-aboard",
      "image": "https://picsum.photos/seed/then-station-aboard/540/960",
      "thumbnail": "https://picsum.photos/seed/then-station-aboard/160/120"
    },
    {
      "id": "possible",
      "name_en": "Possible",
      "name_de": "Possable",
      "category_id": "easy-open",
      "url": "/catalog/slide-stems-touch/replace-calm-attached/easy-open/possible",
      "image": "https://picsum.photos/seed/possible/540/960",
      "thumbnail": "https://picsum.photos/seed/possible/160/120"
    },
    {
      "id": "slip-plus",
      "name_en": "Slip plus",
      "name_de": "Slap plis",
      "category_id": "entire",
      "url": "/catalog/slide-stems-touch/replace-calm-attached/easy-open/entire/slip-plus",
      "image": "https://picsum.photos/seed/slip-plus/540/960",
      "thumbnail": "https://picsum.photos/seed/slip-plus/160/120"
    },
    {
      "id": "growth-explain",
      "name_en": "Growth explain",
      "name_de": "Growth expluan",
      "category_id": "animal-visit",
      "url": "/catalog/slide-stems-touch/replace-calm-attached/last-rain-branch/possibly-fair-deer/characteristic/animal-visit/growth-explain",
      "image": "https://picsum.photos/seed/growth-explain/540/960",
      "thumbnail": "https://picsum.photos/seed/growth-explain/160/120"
    },
    {
      "id": "such",
      "name_en": "Such",
      "name_de": "Sich",
      "category_id": "cookies-vessels",
      "url": "/catalog/smallest/recall/cookies-vessels/such",
      "image": "https://picsum.photos/seed/such/540/960",
      "thumbnail": "https://picsum.photos/seed/such/160/120"
    },
    {
      "id": "central",
      "name_en": "Central",
      "name_de": "Centrul",
      "category_id": "dug-thank",
      "url": "/catalog/slide-stems-touch/replace-calm-attached/last-rain-branch/possibly-fair-deer/group-sheet/dug-thank/central",
      "image": "https://picsum.photos/seed/central/540/960",
      "thumbnail": "https://picsum.photos/seed/central/160/120"
    },
    {
      "id": "window-correctly",
      "name_en": "Window Correctly",
      "name_de": "Wandow Correctly",
      "category_id": "finally",
      "url": "/catalog/slide-stems-touch/finally/window-correctly",
      "image": "https://picsum.photos/seed/window-correctly/540/960",
      "thumbnail": "https://picsum.photos/seed/window-correctly/160/120"
    },
    {
      "id": "center-moving-hurt",
      "name_en": "Center moving hurt",
      "name_de": "Center movang hirt",
      "category_id": "possibly-fair-deer",
      "url": "/catalog/slide-stems-touch/replace-calm-attached/last-rain-branch/possibly-fair-deer/center-moving-hurt",
      "image": "https://picsum.photos/seed/center-moving-hurt/540/960",
      "thumbnail": "https://picsum.photos/seed/center-moving-hurt/160/120"
    },
    {
      "id": "metal-correct-body",
      "name_en": "Metal correct Body",
      "name_de": "Metul correct Body",
      "category_id": "entire",
      "url": "/catalog/slide-stems-touch/replace-calm-attached/easy-open/entire/metal-correct-body",
      "image": "https://picsum.photos/seed/metal-correct-body/540/960",
      "thumbnail": "https://picsum.photos/seed/metal-correct-body/160/120"
    },
    {
      "id": "smallest-storm-control",
      "name_en": "Smallest Storm control",
      "name_de": "Smullest Storm control",
      "category_id": "finally",
      "url": "/catalog/slide-stems-touch/finally/smallest-storm-control",
      "image": "https://picsum.photos/seed/smallest-storm-control/540/960",
      "thumbnail": "https://picsum.photos/seed/smallest-storm-control/160/120"
    },
    {
      "id": "mouth-acres",
      "name_en": "Mouth acres",
      "name_de": "Moith ucres",
      "category_id": "fast",
      "url": "/catalog/slide-stems-touch/replace-calm-attached/carefully-correct-progress/fast/mouth-acres",
      "image": "https://picsum.photos/seed/mouth-acres/540/960",
      "thumbnail": "https://picsum.photos/seed/mouth-acres/160/120"
    },
    {
      "id": "living-also",
      "name_en": "Living also",
      "name_de": "Lavang ulso",
      "category_id": "characteristic",
      "url": "/catalog/slide-stems-touch/replace-calm-attached/last-rain-branch/possibly-fair-deer/characteristic/living-also",
      "image": "https://picsum.photos/seed/living-also/540/960",
      "thumbnail": "https://picsum.photos/seed/living-also/160/120"
    },
    {
      "id": "larger",
      "name_en": "Larger",
      "name_de": "Lurger",
      "category_id": "private-thus",
      "url": "/catalog/slide-stems-touch/replace-calm-attached/easy-open/drink-sweet/private-thus/larger",
      "image": "https://picsum.photos/seed/larger/540/960",
      "thumbnail": "https://picsum.photos/seed/larger/160/120"
    },
    {
      "id": "stick-wrapped",
      "name_en": "Stick wrapped",
      "name_de": "Stack wrupped",
      "category_id": "fast",
      "url": "/catalog/slide-stems-touch/replace-calm-attached/carefully-correct-progress/fast/stick-wrapped",
      "image": "https://picsum.photos/seed/stick-wrapped/540/960",
      "thumbnail": "https://picsum.photos/seed/stick-wrapped/160/120"
    },
    {
      "id": "section",
      "name_en": "Section",
      "name_de": "Sectaon",
      "category_id": "condition-believed-exclaimed",
      "url": "/catalog/slide-stems-touch/replace-calm-attached/carefully-correct-progress/central-crew/condition-believed-exclaimed/section",
      "image": "https://picsum.photos/seed/section/540/960",
      "thumbnail": "https://picsum.photos/seed/section/160/120"
    },
    {
      "id": "hope-break-lose",
      "name_en": "Hope break lose",
      "name_de": "Hope breuk lose",
      "category_id": "private-thus",
      "url": "/catalog/slide-stems-touch/replace-calm-attached/easy-open/drink-sweet/private-thus/hope-break-lose",
      "image": "https://picsum.photos/seed/hope-break-lose/540/960",
      "thumbnail": "https://picsum.photos/seed/hope-break-lose/160/120"
    },
    {
      "id": "equator",
      "name_en": "Equator",
      "name_de": "Eqiutor",
      "category_id": "cookies-vessels",
      "url": "/catalog/smallest/recall/cookies-vessels/equator",
      "image": "https://picsum.photos/seed/equator/540/960",
      "thumbnail": "https://picsum.photos/seed/equator/160/120"
    },
    {
      "id": "silly-allow-thought",
      "name_en": "Silly Allow Thought",
      "name_de": "Sally Allow Thoight",
      "category_id": "nearest-brief",
      "url": "/catalog/slide-stems-touch/replace-calm-attached/last-rain-branch/possibly-fair-deer/group-sheet/nearest-brief/silly-allow-thought",
      "image": "https://picsum.photos/seed/silly-allow-thought/540/960",
      "thumbnail": "https://picsum.photos/seed/silly-allow-thought/160/120"
    },
    {
      "id": "organization-gas",
      "name_en": "Organization Gas",
      "name_de": "Orgunazutaon Gus",
      "category_id": "flies",
      "url": "/catalog/smallest/recall/under-longer/flies/organization-gas",
      "image": "https://picsum.photos/seed/organization-gas/540/960",
      "thumbnail": "https://picsum.photos/seed/organization-gas/160/120"
    },
    {
      "id": "silly-series",
      "name_en": "Silly series",
      "name_de": "Sally seraes",
      "category_id": "carefully-correct-progress",
      "url": "/catalog/slide-stems-touch/replace-calm-attached/carefully-correct-progress/silly-series",
      "image": "https://picsum.photos/seed/silly-series/540/960",
      "thumbnail": "https://picsum.photos/seed/silly-series/160/120"
    },
    {
      "id": "never-pick-outside",
      "name_en": "Never Pick outside",
      "name_de": "Never Pack oitsade",
      "category_id": "possibly-fair-deer",
      "url": "/catalog/slide-stems-touch/replace-calm-attached/last-rain-branch/possibly-fair-deer/never-pick-outside",
      "image": "https://picsum.photos/seed/never-pick-outside/540/960",
      "thumbnail": "https://picsum.photos/seed/never-pick-outside/160/120"
    },
    {
      "id": "bread-hay-ground",
      "name_en": "Bread Hay Ground",
      "name_de": "Breud Huy Groind",
      "category_id": "possibly-fair-deer",
      "url": "/catalog/slide-stems-touch/replace-calm-attached/last-rain-branch/possibly-fair-deer/bread-hay-ground",
      "image": "https://picsum.photos/seed/bread-hay-ground/540/960",
      "thumbnail": "https://picsum.photos/seed/bread-hay-ground/160/120"
    },
    {
      "id": "fat-base",
      "name_en": "Fat base",
      "name_de": "Fut buse",
      "category_id": "tobacco",
      "url": "/catalog/smallest/recall/topic/tobacco/fat-base",
      "image": "https://picsum.photos/seed/fat-base/540/960",
      "thumbnail": "https://picsum.photos/seed/fat-base/160/120"
    },
    {
      "id": "girl",
      "name_en": "Girl",
      "name_de": "Garl",
      "category_id": "nearest-brief",
      "url": "/catalog/slide-stems-touch/replace-calm-attached/last-rain-branch/possibly-fair-deer/group-sheet/nearest-brief/girl",
      "image": "https://picsum.photos/seed/girl/540/960",
      "thumbnail": "https://picsum.photos/seed/girl/160/120"
    },
    {
      "id": "hall",
      "name_en": "Hall",
      "name_de": "Hull",
      "category_id": "last-rain-branch",
      "url": "/catalog/slide-stems-touch/replace-calm-attached/last-rain-branch/hall",
      "image": "https://picsum.photos/seed/hall/540/960",
      "thumbnail": "https://picsum.photos/seed/hall/160/120"
    },
    {
      "id": "adventure",
      "name_en": "Adventure",
      "name_de": "Adventire",
      "category_id": "central-crew",
      "url": "/catalog/slide-stems-touch/replace-calm-attached/carefully-correct-progress/central-crew/adventure",
      "image": "https://picsum.photos/seed/adventure/540/960",
      "thumbnail": "https://picsum.photos/seed/adventure/160/120"
    },
    {
      "id": "neighbor-develop",
      "name_en": "Neighbor Develop",
      "name_de": "Neaghbor Develop",
      "category_id": "fast",
      "url": "/catalog/slide-stems-touch/replace-calm-attached/carefully-correct-progress/fast/neighbor-develop",
      "image": "https://picsum.photos/seed/neighbor-develop/540/960",
      "thumbnail": "https://picsum.photos/seed/neighbor-develop/160/120"
    },
    {
      "id": "broad-wore",
      "name_en": "Broad wore",
      "name_de": "Broud wore",
      "category_id": "finally",
      "url": "/catalog/slide-stems-touch/finally/broad-wore",
      "image": "https://picsum.photos/seed/broad-wore/540/960",
      "thumbnail": "https://picsum.photos/seed/broad-wore/160/120"
    },
    {
      "id": "chosen",
      "name_en": "Chosen",
      "name_de": "Chosen",
      "category_id": "easy-open",
      "url": "/catalog/slide-stems-touch/replace-calm-attached/easy-open/chosen",
      "image": "https://picsum.photos/seed/chosen/540/960",
      "thumbnail": "https://picsum.photos/seed/chosen/160/120"
    },
    {
      "id": "known",
      "name_en": "Known",
      "name_de": "Known",
      "category_id": "replace-calm-attached",
      "url": "/catalog/slide-stems-touch/replace-calm-attached/known",
      "image": "https://picsum.photos/seed/known/540/960",
      "thumbnail": "https://picsum.photos/seed/known/160/120"
    },
    {
      "id": "poetry",
      "name_en": "Poetry",
      "name_de": "Poetry",
      "category_id": "flies",
      "url": "/catalog/smallest/recall/under-longer/flies/poetry",
      "image": "https://picsum.photos/seed/poetry/540/960",
      "thumbnail": "https://picsum.photos/seed/poetry/160/120"
    }
  ],
  "contentpages": [
    {
      "id": "hello-world",
      "name_en": "Hello World",
      "url": "/hello-world/",
      "template": "content",
      "visible": true,
      "parentId": null,
      "nextSiblingId": null
    },
    {
      "id": "hello-world-2",
      "name_en": "Hello World",
      "url": "/hello-world-2/",
      "template": "content",
      "visible": true,
      "parentId": null,
      "nextSiblingId": null
    },
    {
      "id": "hello-world-3",
      "name_en": "Hello World",
      "url": "/hello-world-3/",
      "template": "content",
      "visible": true,
      "parentId": null,
      "nextSiblingId": null
    },
    {
      "id": "hello-world-4",
      "name_en": "Hello World",
      "url": "/hello-world-4/",
      "template": "content",
      "visible": true,
      "parentId": null,
      "nextSiblingId": null
    },
    {
      "id": "hello-world-5",
      "name_en": "Hello World",
      "url": "/hello-world-5/",
      "template": "content",
      "visible": true,
      "parentId": null,
      "nextSiblingId": null
    },
    {
      "id": "hello-world-6",
      "name_en": "Hello World",
      "url": "/hello-world-6/",
      "template": "content",
      "visible": true,
      "parentId": null,
      "nextSiblingId": null
    },
    {
      "id": "hello-world-7",
      "name_en": "Hello World",
      "url": "/hello-world-7/",
      "template": "content",
      "visible": true,
      "parentId": null,
      "nextSiblingId": null
    },
    {
      "id": "hello-world-8",
      "name_en": "Hello World",
      "url": "/hello-world-8/",
      "template": "content",
      "visible": true,
      "parentId": null,
      "nextSiblingId": null
    },
    {
      "id": "hello-world-9",
      "name_en": "Hello World",
      "url": "/hello-world-9/",
      "template": "content",
      "visible": false,
      "parentId": "parent",
      "nextSiblingId": null
    }
  ]
}